{"type": "FeatureCollection", "features": [ {"type": "Feature", "properties": {"norad_id": 66716, "name": "FLOCK 4H-13", "group": "last-30-days", "lat": 26.529620634822308, "lon": 63.143915358732016, "alt_km": 511.0239957619233, "timestamp": "2025-12-21T05:44:50.290688+00:00", "meta": {"OBJECT_NAME": "FLOCK 4H-13", "OBJECT_ID": "2025-276BC", "EPOCH": "2025-12-20T18:33:23.988384", "MEAN_MOTION": 15.18161545, "ECCENTRICITY": 0.00015715, "INCLINATION": 97.4437, "RA_OF_ASC_NODE": 66.4276, "ARG_OF_PERICENTER": 148.1688, "MEAN_ANOMALY": 211.9642, "EPHEMERIS_TYPE": 0, "CLASSIFICATION_TYPE": "U", "NORAD_CAT_ID": 66716, "ELEMENT_SET_NO": 999, "REV_AT_EPOCH": 334, "BSTAR": 0.00031976945, "MEAN_MOTION_DOT": 6.466e-05, "MEAN_MOTION_DDOT": 0}, "tle": {"line1": "1 66716U 25276BC  25354.77319431  .00006466  00000+0  31977-3 0  9993", "line2": "2 66716  97.4437  66.4276 0001571 148.1688 211.9642 15.18161545  3345"}}, "geometry": {"type": "Point", "coordinates": [63.143915358732016, 26.529620634822308]}}, {"type": "Feature", "properties": {"norad_id": 66717, "name": "FLOCK 4H-14", "group": "last-30-days", "lat": 36.339976562621956, "lon": 61.367832699649426, "alt_km": 508.51535702415003, "timestamp": "2025-12-21T05:44:50.290704+00:00", "meta": {"OBJECT_NAME": "FLOCK 4H-14", "OBJECT_ID": "2025-276BD", "EPOCH": "2025-12-20T13:46:08.760000", "MEAN_MOTION": 15.18311745, "ECCENTRICITY": 0.0001451, "INCLINATION": 97.4426, "RA_OF_ASC_NODE": 66.2313, "ARG_OF_PERICENTER": 132.5712, "MEAN_ANOMALY": 227.5644, "EPHEMERIS_TYPE": 0, "CLASSIFICATION_TYPE": "U", "NORAD_CAT_ID": 66717, "ELEMENT_SET_NO": 999, "REV_AT_EPOCH": 256, "BSTAR": 0.00026141, "MEAN_MOTION_DOT": 5.296e-05, "MEAN_MOTION_DDOT": 0}, "tle": {"line1": "1 66717U 25276BD  25354.57371250  .00005296  00000+0  26141-3 0  9996", "line2": "2 66717  97.4426  66.2313 0001451 132.5712 227.5644 15.18311745  2563"}}, "geometry": {"type": "Point", "coordinates": [61.367832699649426, 36.339976562621956]}}, {"type": "Feature", "properties": {"norad_id": 66718, "name": "FLOCK 4H-15", "group": "last-30-days", "lat": -56.6848289264426, "lon": 78.32344089133363, "alt_km": 519.8356242412947, "timestamp": "2025-12-21T05:44:50.290714+00:00", "meta": {"OBJECT_NAME": "FLOCK 4H-15", "OBJECT_ID": "2025-276BE", "EPOCH": "2025-12-20T01:30:21.849696", "MEAN_MOTION": 15.17073597, "ECCENTRICITY": 0.00030538, "INCLINATION": 97.4434, "RA_OF_ASC_NODE": 65.6942, "ARG_OF_PERICENTER": 283.5024, "MEAN_ANOMALY": 76.5869, "EPHEMERIS_TYPE": 0, "CLASSIFICATION_TYPE": "U", "NORAD_CAT_ID": 66718, "ELEMENT_SET_NO": 999, "REV_AT_EPOCH": 323, "BSTAR": 0.00022690308, "MEAN_MOTION_DOT": 4.427e-05, "MEAN_MOTION_DDOT": 0}, "tle": {"line1": "1 66718U 25276BE  25354.06275289  .00004427  00000+0  22690-3 0  9996", "line2": "2 66718  97.4434  65.6942 0003053 283.5024  76.5869 15.17073597  3232"}}, "geometry": {"type": "Point", "coordinates": [78.32344089133363, -56.6848289264426]}}, {"type": "Feature", "properties": {"norad_id": 66719, "name": "FLOCK 4H-16", "group": "last-30-days", "lat": -48.316644754035764, "lon": 75.3031652857526, "alt_km": 519.8794323513894, "timestamp": "2025-12-21T05:44:50.290750+00:00", "meta": {"OBJECT_NAME": "FLOCK 4H-16", "OBJECT_ID": "2025-276BF", "EPOCH": "2025-12-20T14:08:00.960000", "MEAN_MOTION": 15.17195126, "ECCENTRICITY": 0.0002963, "INCLINATION": 97.4451, "RA_OF_ASC_NODE": 66.2191, "ARG_OF_PERICENTER": 263.247, "MEAN_ANOMALY": 96.8426, "EPHEMERIS_TYPE": 0, "CLASSIFICATION_TYPE": "U", "NORAD_CAT_ID": 66719, "ELEMENT_SET_NO": 999, "REV_AT_EPOCH": 331, "BSTAR": 0.00039434, "MEAN_MOTION_DOT": 7.772e-05, "MEAN_MOTION_DDOT": 0}, "tle": {"line1": "1 66719U 25276BF  25354.58890000  .00007772  00000+0  39434-3 0  9998", "line2": "2 66719  97.4451  66.2191 0002963 263.2470  96.8426 15.17195126  3310"}}, "geometry": {"type": "Point", "coordinates": [75.3031652857526, -48.316644754035764]}}, {"type": "Feature", "properties": {"norad_id": 66720, "name": "FLOCK 4H-17", "group": "last-30-days", "lat": 16.306301650854152, "lon": 64.69591130027021, "alt_km": 514.2218643475353, "timestamp": "2025-12-21T05:44:50.290760+00:00", "meta": {"OBJECT_NAME": "FLOCK 4H-17", "OBJECT_ID": "2025-276BG", "EPOCH": "2025-12-20T18:36:03.659040", "MEAN_MOTION": 15.18031653, "ECCENTRICITY": 0.00024846, "INCLINATION": 97.4451, "RA_OF_ASC_NODE": 66.4314, "ARG_OF_PERICENTER": 199.0649, "MEAN_ANOMALY": 161.0492, "EPHEMERIS_TYPE": 0, "CLASSIFICATION_TYPE": "U", "NORAD_CAT_ID": 66720, "ELEMENT_SET_NO": 999, "REV_AT_EPOCH": 334, "BSTAR": 0.00026125813, "MEAN_MOTION_DOT": 5.25e-05, "MEAN_MOTION_DDOT": 0}, "tle": {"line1": "1 66720U 25276BG  25354.77504235  .00005250  00000+0  26126-3 0  9996", "line2": "2 66720  97.4451  66.4314 0002484 199.0649 161.0492 15.18031653  3349"}}, "geometry": {"type": "Point", "coordinates": [64.69591130027021, 16.306301650854152]}}, {"type": "Feature", "properties": {"norad_id": 66721, "name": "FLOCK 4H-18", "group": "last-30-days", "lat": -53.99564184073064, "lon": 77.19417249759441, "alt_km": 519.7232488543696, "timestamp": "2025-12-21T05:44:50.290770+00:00", "meta": {"OBJECT_NAME": "FLOCK 4H-18", "OBJECT_ID": "2025-276BH", "EPOCH": "2025-12-20T14:09:30.009024", "MEAN_MOTION": 15.17118542, "ECCENTRICITY": 0.0002784, "INCLINATION": 97.4376, "RA_OF_ASC_NODE": 66.2, "ARG_OF_PERICENTER": 291.1596, "MEAN_ANOMALY": 68.934, "EPHEMERIS_TYPE": 0, "CLASSIFICATION_TYPE": "U", "NORAD_CAT_ID": 66721, "ELEMENT_SET_NO": 999, "REV_AT_EPOCH": 331, "BSTAR": 0.00053907, "MEAN_MOTION_DOT": 0.0001063, "MEAN_MOTION_DDOT": 0}, "tle": {"line1": "1 66721U 25276BH  25354.58993066  .00010630  00000+0  53907-3 0  9995", "line2": "2 66721  97.4376  66.2000 0002784 291.1596  68.9340 15.17118542  3310"}}, "geometry": {"type": "Point", "coordinates": [77.19417249759441, -53.99564184073064]}}, {"type": "Feature", "properties": {"norad_id": 66722, "name": "FLOCK 4H-19", "group": "last-30-days", "lat": 30.64601887436272, "lon": 62.43423560668354, "alt_km": 510.75731425365393, "timestamp": "2025-12-21T05:44:50.290782+00:00", "meta": {"OBJECT_NAME": "FLOCK 4H-19", "OBJECT_ID": "2025-276BJ", "EPOCH": "2025-12-20T18:32:19.331808", "MEAN_MOTION": 15.18205904, "ECCENTRICITY": 0.00021962, "INCLINATION": 97.4396, "RA_OF_ASC_NODE": 66.4153, "ARG_OF_PERICENTER": 167.8141, "MEAN_ANOMALY": 192.3146, "EPHEMERIS_TYPE": 0, "CLASSIFICATION_TYPE": "U", "NORAD_CAT_ID": 66722, "ELEMENT_SET_NO": 999, "REV_AT_EPOCH": 263, "BSTAR": 0.00041936404, "MEAN_MOTION_DOT": 8.514e-05, "MEAN_MOTION_DDOT": 0}, "tle": {"line1": "1 66722U 25276BJ  25354.77244597  .00008514  00000+0  41936-3 0  9992", "line2": "2 66722  97.4396  66.4153 0002196 167.8141 192.3146 15.18205904  2636"}}, "geometry": {"type": "Point", "coordinates": [62.43423560668354, 30.64601887436272]}}, {"type": "Feature", "properties": {"norad_id": 66723, "name": "FLOCK 4H-20", "group": "last-30-days", "lat": 33.60134846124938, "lon": 61.90583160488961, "alt_km": 510.4911227384164, "timestamp": "2025-12-21T05:44:50.290792+00:00", "meta": {"OBJECT_NAME": "FLOCK 4H-20", "OBJECT_ID": "2025-276BK", "EPOCH": "2025-12-20T18:31:33.583008", "MEAN_MOTION": 15.18266003, "ECCENTRICITY": 0.00026585, "INCLINATION": 97.4431, "RA_OF_ASC_NODE": 66.429, "ARG_OF_PERICENTER": 178.4883, "MEAN_ANOMALY": 181.636, "EPHEMERIS_TYPE": 0, "CLASSIFICATION_TYPE": "U", "NORAD_CAT_ID": 66723, "ELEMENT_SET_NO": 999, "REV_AT_EPOCH": 259, "BSTAR": 0.00034678912, "MEAN_MOTION_DOT": 7.04e-05, "MEAN_MOTION_DDOT": 0}, "tle": {"line1": "1 66723U 25276BK  25354.77191647  .00007040  00000+0  34679-3 0  9999", "line2": "2 66723  97.4431  66.4290 0002658 178.4883 181.6360 15.18266003  2594"}}, "geometry": {"type": "Point", "coordinates": [61.90583160488961, 33.60134846124938]}}, {"type": "Feature", "properties": {"norad_id": 66724, "name": "FLOCK 4H-21", "group": "last-30-days", "lat": 36.185136180598164, "lon": 61.39152102117964, "alt_km": 509.5959532804718, "timestamp": "2025-12-21T05:44:50.290802+00:00", "meta": {"OBJECT_NAME": "FLOCK 4H-21", "OBJECT_ID": "2025-276BL", "EPOCH": "2025-12-20T15:21:05.633856", "MEAN_MOTION": 15.18324343, "ECCENTRICITY": 0.00023462, "INCLINATION": 97.4401, "RA_OF_ASC_NODE": 66.2869, "ARG_OF_PERICENTER": 174.2794, "MEAN_ANOMALY": 185.8468, "EPHEMERIS_TYPE": 0, "CLASSIFICATION_TYPE": "U", "NORAD_CAT_ID": 66724, "ELEMENT_SET_NO": 999, "REV_AT_EPOCH": 257, "BSTAR": 0.00029211693, "MEAN_MOTION_DOT": 5.929e-05, "MEAN_MOTION_DDOT": 0}, "tle": {"line1": "1 66724U 25276BL  25354.63964854  .00005929  00000+0  29212-3 0  9994", "line2": "2 66724  97.4401  66.2869 0002346 174.2794 185.8468 15.18324343  2576"}}, "geometry": {"type": "Point", "coordinates": [61.39152102117964, 36.185136180598164]}}, {"type": "Feature", "properties": {"norad_id": 66725, "name": "FLOCK 4H-22", "group": "last-30-days", "lat": -28.148094572252248, "lon": 70.85309140924419, "alt_km": 518.7345312716498, "timestamp": "2025-12-21T05:44:50.290816+00:00", "meta": {"OBJECT_NAME": "FLOCK 4H-22", "OBJECT_ID": "2025-276BM", "EPOCH": "2025-12-20T14:03:15.547968", "MEAN_MOTION": 15.18071649, "ECCENTRICITY": 0.0003075, "INCLINATION": 97.4385, "RA_OF_ASC_NODE": 66.2018, "ARG_OF_PERICENTER": 150.0653, "MEAN_ANOMALY": 210.0757, "EPHEMERIS_TYPE": 0, "CLASSIFICATION_TYPE": "U", "NORAD_CAT_ID": 66725, "ELEMENT_SET_NO": 999, "REV_AT_EPOCH": 331, "BSTAR": 0.01217, "MEAN_MOTION_DOT": 0.00256591, "MEAN_MOTION_DDOT": 0}, "tle": {"line1": "1 66725U 25276BM  25354.58559662  .00256591  00000+0  12170-1 0  9992", "line2": "2 66725  97.4385  66.2018 0003075 150.0653 210.0757 15.18071649  3313"}}, "geometry": {"type": "Point", "coordinates": [70.85309140924419, -28.148094572252248]}}]}